{
    "links": {
        "self": "http://www.neowsapp.com/rest/v1/neo/3553057?api_key=iIulBulltgU6a56xZRHN4H3l9WmuAYTsLGpBGhQ2"
    },
    "id": "3553057",
    "neo_reference_id": "3553057",
    "name": "(2010 XO10)",
    "designation": "2010 XO10",
    "nasa_jpl_url": "http://ssd.jpl.nasa.gov/sbdb.cgi?sstr=3553057",
    "absolute_magnitude_h": 20.4,
    "estimated_diameter": {
        "kilometers": {
            "estimated_diameter_min": 0.2210828104,
            "estimated_diameter_max": 0.4943561926
        },
        "meters": {
            "estimated_diameter_min": 221.0828103591,
            "estimated_diameter_max": 494.3561926196
        },
        "miles": {
            "estimated_diameter_min": 0.137374447,
            "estimated_diameter_max": 0.3071786018
        },
        "feet": {
            "estimated_diameter_min": 725.3373275385,
            "estimated_diameter_max": 1621.9035709942
        }
    },
    "is_potentially_hazardous_asteroid": false,
    "close_approach_data": [
        {
            "close_approach_date": "1990-07-31",
            "close_approach_date_full": "1990-Jul-31 01:59",
            "epoch_date_close_approach": 649389540000,
            "relative_velocity": {
                "kilometers_per_second": "18.6826264222",
                "kilometers_per_hour": "67257.4551197987",
                "miles_per_hour": "41791.1670437438"
            },
            "miss_distance": {
                "astronomical": "0.3750727007",
                "lunar": "145.9032805723",
                "kilometers": "56110077.119867509",
                "miles": "34865185.2021652642"
            },
            "orbiting_body": "Earth"
        },
        {
            "close_approach_date": "2010-11-24",
            "close_approach_date_full": "2010-Nov-24 19:55",
            "epoch_date_close_approach": 1290628500000,
            "relative_velocity": {
                "kilometers_per_second": "13.2585177781",
                "kilometers_per_hour": "47730.6640011838",
                "miles_per_hour": "29657.9784178467"
            },
            "miss_distance": {
                "astronomical": "0.1115154874",
                "lunar": "43.3795245986",
                "kilometers": "16682479.387051838",
                "miles": "10366012.0127498444"
            },
            "orbiting_body": "Earth"
        }
    ],
    "orbital_data": {
        "orbit_id": "23",
        "orbit_determination_date": "2017-04-06 08:55:25",
        "first_observation_date": "2010-12-03",
        "last_observation_date": "2011-01-05",
        "data_arc_in_days": 33,
        "observations_used": 109,
        "orbit_uncertainty": "6",
        "minimum_orbit_intersection": ".0865668",
        "jupiter_tisserand_invariant": "3.572",
        "epoch_osculation": "2459000.5",
        "eccentricity": ".5426723971784927",
        "semi_major_axis": "2.019919099685538",
        "inclination": "17.86786644140674",
        "ascending_node_longitude": "77.90376331490016",
        "orbital_period": "1048.574737776956",
        "perihelion_distance": ".9237647597525646",
        "perihelion_argument": "300.3455677840784",
        "aphelion_distance": "3.116073439618512",
        "perihelion_time": "2458633.677145082633",
        "mean_anomaly": "125.9387843447568",
        "mean_motion": ".3433231671814089",
        "equinox": "J2000",
        "orbit_class": {
            "orbit_class_type": "APO",
            "orbit_class_description": "Near-Earth asteroid orbits which cross the Earth’s orbit similar to that of 1862 Apollo",
            "orbit_class_range": "a (semi-major axis) > 1.0 AU; q (perihelion) < 1.017 AU"
        }
    },
    "is_sentry_object": false
}